JILIN-1 GAOFEN 3A       
1 44312U 19032C   26068.74542089  .00016264  00000+0  55381-3 0  9993
2 44312  44.9746 183.2861 0002618 111.2900 248.8263 15.30271310372592
STARLINK-34539          
1 64674U 25139L   26068.54124975  .00016172  00000+0  55720-3 0  9994
2 64674  53.1596 127.5676 0001360  79.8701 280.2453 15.30185272 40163
