[{"OBJECT_NAME":"JILIN-1 GAOFEN 3A","OBJECT_ID":"2019-032C","EPOCH":"2026-03-09T17:53:24.364896","MEAN_MOTION":15.3027131,"ECCENTRICITY":0.00026181,"INCLINATION":44.9746,"RA_OF_ASC_NODE":183.2861,"ARG_OF_PERICENTER":111.29,"MEAN_ANOMALY":248.8263,"EPHEMERIS_TYPE":0,"CLASSIFICATION_TYPE":"U","NORAD_CAT_ID":44312,"ELEMENT_SET_NO":999,"REV_AT_EPOCH":37259,"BSTAR":0.00055381133,"MEAN_MOTION_DOT":0.00016264,"MEAN_MOTION_DDOT":0},{"OBJECT_NAME":"STARLINK-34539","OBJECT_ID":"2025-139L","EPOCH":"2026-03-09T12:59:23.978400","MEAN_MOTION":15.30185272,"ECCENTRICITY":0.00013604,"INCLINATION":53.1596,"RA_OF_ASC_NODE":127.5676,"ARG_OF_PERICENTER":79.8701,"MEAN_ANOMALY":280.2453,"EPHEMERIS_TYPE":0,"CLASSIFICATION_TYPE":"U","NORAD_CAT_ID":64674,"ELEMENT_SET_NO":999,"REV_AT_EPOCH":4016,"BSTAR":0.00055720368,"MEAN_MOTION_DOT":0.00016172,"MEAN_MOTION_DDOT":0}]
